CCSDS_OMM_VERS = 2.0
CREATION_DATE  = 
ORIGINATOR     = 

OBJECT_NAME    = STARLINK-36372
OBJECT_ID      = 2026-035L
CENTER_NAME    = EARTH
REF_FRAME      = TEME
TIME_SYSTEM    = UTC
MEAN_ELEMENT_THEORY = SGP/SGP4

EPOCH          = 2026-02-28T20:00:01.999008
MEAN_MOTION    = 16.05981466
ECCENTRICITY   = .0000965
INCLINATION    = 97.2797
RA_OF_ASC_NODE = 351.4419
ARG_OF_PERICENTER = 92.0932
MEAN_ANOMALY   = 358.2437

EPHEMERIS_TYPE = 0
CLASSIFICATION_TYPE = U
NORAD_CAT_ID   = 67889
ELEMENT_SET_NO = 999
REV_AT_EPOCH   = 233
BSTAR          = -.97179E-3
MEAN_MOTION_DOT = -.699553E-2
MEAN_MOTION_DDOT = .18121E-3

CCSDS_OMM_VERS = 2.0
CREATION_DATE  = 
ORIGINATOR     = 

OBJECT_NAME    = STARLINK-36363
OBJECT_ID      = 2026-035M
CENTER_NAME    = EARTH
REF_FRAME      = TEME
TIME_SYSTEM    = UTC
MEAN_ELEMENT_THEORY = SGP/SGP4

EPOCH          = 2026-02-28T20:00:01.999008
MEAN_MOTION    = 16.05896445
ECCENTRICITY   = .0001092
INCLINATION    = 97.2800
RA_OF_ASC_NODE = 351.4412
ARG_OF_PERICENTER = 102.1079
MEAN_ANOMALY   = 346.4629

EPHEMERIS_TYPE = 0
CLASSIFICATION_TYPE = U
NORAD_CAT_ID   = 67890
ELEMENT_SET_NO = 999
REV_AT_EPOCH   = 233
BSTAR          = -.99814E-3
MEAN_MOTION_DOT = -.714716E-2
MEAN_MOTION_DDOT = .18838E-3

CCSDS_OMM_VERS = 2.0
CREATION_DATE  = 
ORIGINATOR     = 

OBJECT_NAME    = STARLINK-36816
OBJECT_ID      = 2026-035N
CENTER_NAME    = EARTH
REF_FRAME      = TEME
TIME_SYSTEM    = UTC
MEAN_ELEMENT_THEORY = SGP/SGP4

EPOCH          = 2026-02-28T20:00:01.999008
MEAN_MOTION    = 16.07831313
ECCENTRICITY   = .0000864
INCLINATION    = 97.2773
RA_OF_ASC_NODE = 351.4554
ARG_OF_PERICENTER = 96.4030
MEAN_ANOMALY   = 26.8669

EPHEMERIS_TYPE = 0
CLASSIFICATION_TYPE = U
NORAD_CAT_ID   = 67891
ELEMENT_SET_NO = 999
REV_AT_EPOCH   = 222
BSTAR          = -.10608E-2
MEAN_MOTION_DOT = -.855206E-2
MEAN_MOTION_DDOT = .26936E-3

CCSDS_OMM_VERS = 2.0
CREATION_DATE  = 
ORIGINATOR     = 

OBJECT_NAME    = STARLINK-36813
OBJECT_ID      = 2026-035P
CENTER_NAME    = EARTH
REF_FRAME      = TEME
TIME_SYSTEM    = UTC
MEAN_ELEMENT_THEORY = SGP/SGP4

EPOCH          = 2026-02-28T20:00:01.999008
MEAN_MOTION    = 16.07070935
ECCENTRICITY   = .0000988
INCLINATION    = 97.2779
RA_OF_ASC_NODE = 351.4489
ARG_OF_PERICENTER = 89.5561
MEAN_ANOMALY   = 18.9886

EPHEMERIS_TYPE = 0
CLASSIFICATION_TYPE = U
NORAD_CAT_ID   = 67892
ELEMENT_SET_NO = 999
REV_AT_EPOCH   = 233
BSTAR          = -.10962E-2
MEAN_MOTION_DOT = -.842919E-2
MEAN_MOTION_DDOT = .25973E-3

CCSDS_OMM_VERS = 2.0
CREATION_DATE  = 
ORIGINATOR     = 

OBJECT_NAME    = STARLINK-36803
OBJECT_ID      = 2026-035Q
CENTER_NAME    = EARTH
REF_FRAME      = TEME
TIME_SYSTEM    = UTC
MEAN_ELEMENT_THEORY = SGP/SGP4

EPOCH          = 2026-02-28T20:00:01.999008
MEAN_MOTION    = 16.06142675
ECCENTRICITY   = .0000989
INCLINATION    = 97.2796
RA_OF_ASC_NODE = 351.4431
ARG_OF_PERICENTER = 98.7877
MEAN_ANOMALY   = 354.3154

EPHEMERIS_TYPE = 0
CLASSIFICATION_TYPE = U
NORAD_CAT_ID   = 67893
ELEMENT_SET_NO = 999
REV_AT_EPOCH   = 233
BSTAR          = -.96567E-3
MEAN_MOTION_DOT = -.70204E-2
MEAN_MOTION_DDOT = .18278E-3

CCSDS_OMM_VERS = 2.0
CREATION_DATE  = 
ORIGINATOR     = 

OBJECT_NAME    = STARLINK-36846
OBJECT_ID      = 2026-035R
CENTER_NAME    = EARTH
REF_FRAME      = TEME
TIME_SYSTEM    = UTC
MEAN_ELEMENT_THEORY = SGP/SGP4

EPOCH          = 2026-02-28T20:00:01.999008
MEAN_MOTION    = 16.06478438
ECCENTRICITY   = .0000979
INCLINATION    = 97.2794
RA_OF_ASC_NODE = 351.4453
ARG_OF_PERICENTER = 100.9627
MEAN_ANOMALY   = 357.7742

EPHEMERIS_TYPE = 0
CLASSIFICATION_TYPE = U
NORAD_CAT_ID   = 67894
ELEMENT_SET_NO = 999
REV_AT_EPOCH   = 233
BSTAR          = -.98526E-3
MEAN_MOTION_DOT = -.731038E-2
MEAN_MOTION_DDOT = .1979E-3

CCSDS_OMM_VERS = 2.0
CREATION_DATE  = 
ORIGINATOR     = 

OBJECT_NAME    = STARLINK-36866
OBJECT_ID      = 2026-035S
CENTER_NAME    = EARTH
REF_FRAME      = TEME
TIME_SYSTEM    = UTC
MEAN_ELEMENT_THEORY = SGP/SGP4

EPOCH          = 2026-02-28T20:00:01.999008
MEAN_MOTION    = 16.06631690
ECCENTRICITY   = .0000941
INCLINATION    = 97.2792
RA_OF_ASC_NODE = 351.4464
ARG_OF_PERICENTER = 90.6112
MEAN_ANOMALY   = 10.5607

EPHEMERIS_TYPE = 0
CLASSIFICATION_TYPE = U
NORAD_CAT_ID   = 67895
ELEMENT_SET_NO = 999
REV_AT_EPOCH   = 233
BSTAR          = -.10215E-2
MEAN_MOTION_DOT = -.764905E-2
MEAN_MOTION_DDOT = .2157E-3

CCSDS_OMM_VERS = 2.0
CREATION_DATE  = 
ORIGINATOR     = 

OBJECT_NAME    = STARLINK-36877
OBJECT_ID      = 2026-035T
CENTER_NAME    = EARTH
REF_FRAME      = TEME
TIME_SYSTEM    = UTC
MEAN_ELEMENT_THEORY = SGP/SGP4

EPOCH          = 2026-02-28T20:00:01.999008
MEAN_MOTION    = 16.06332210
ECCENTRICITY   = .000091
INCLINATION    = 97.2793
RA_OF_ASC_NODE = 351.4442
ARG_OF_PERICENTER = 92.3250
MEAN_ANOMALY   = 3.7167

EPHEMERIS_TYPE = 0
CLASSIFICATION_TYPE = U
NORAD_CAT_ID   = 67896
ELEMENT_SET_NO = 999
REV_AT_EPOCH   = 233
BSTAR          = -.90989E-3
MEAN_MOTION_DOT = -.669412E-2
MEAN_MOTION_DDOT = .16768E-3

CCSDS_OMM_VERS = 2.0
CREATION_DATE  = 
ORIGINATOR     = 

OBJECT_NAME    = STARLINK-36870
OBJECT_ID      = 2026-035U
CENTER_NAME    = EARTH
REF_FRAME      = TEME
TIME_SYSTEM    = UTC
MEAN_ELEMENT_THEORY = SGP/SGP4

EPOCH          = 2026-02-28T20:00:01.999008
MEAN_MOTION    = 16.06810169
ECCENTRICITY   = .0000867
INCLINATION    = 97.2789
RA_OF_ASC_NODE = 351.4476
ARG_OF_PERICENTER = 101.0524
MEAN_ANOMALY   = 2.9192

EPHEMERIS_TYPE = 0
CLASSIFICATION_TYPE = U
NORAD_CAT_ID   = 67897
ELEMENT_SET_NO = 999
REV_AT_EPOCH   = 233
BSTAR          = -.10608E-2
MEAN_MOTION_DOT = -.802887E-2
MEAN_MOTION_DDOT = .23653E-3

CCSDS_OMM_VERS = 2.0
CREATION_DATE  = 
ORIGINATOR     = 

OBJECT_NAME    = STARLINK-36810
OBJECT_ID      = 2026-035V
CENTER_NAME    = EARTH
REF_FRAME      = TEME
TIME_SYSTEM    = UTC
MEAN_ELEMENT_THEORY = SGP/SGP4

EPOCH          = 2026-02-28T20:00:01.999008
MEAN_MOTION    = 16.06929611
ECCENTRICITY   = .000097
INCLINATION    = 97.2787
RA_OF_ASC_NODE = 351.4482
ARG_OF_PERICENTER = 83.4634
MEAN_ANOMALY   = 22.7113

EPHEMERIS_TYPE = 0
CLASSIFICATION_TYPE = U
NORAD_CAT_ID   = 67898
ELEMENT_SET_NO = 999
REV_AT_EPOCH   = 233
BSTAR          = -.107E-2
MEAN_MOTION_DOT = -.815802E-2
MEAN_MOTION_DDOT = .24401E-3

CCSDS_OMM_VERS = 2.0
CREATION_DATE  = 
ORIGINATOR     = 

OBJECT_NAME    = STARLINK-36878
OBJECT_ID      = 2026-035W
CENTER_NAME    = EARTH
REF_FRAME      = TEME
TIME_SYSTEM    = UTC
MEAN_ELEMENT_THEORY = SGP/SGP4

EPOCH          = 2026-02-28T20:00:01.999008
MEAN_MOTION    = 16.07176992
ECCENTRICITY   = .0000911
INCLINATION    = 97.2784
RA_OF_ASC_NODE = 351.4502
ARG_OF_PERICENTER = 106.7130
MEAN_ANOMALY   = 3.8255

EPHEMERIS_TYPE = 0
CLASSIFICATION_TYPE = U
NORAD_CAT_ID   = 67899
ELEMENT_SET_NO = 999
REV_AT_EPOCH   = 233
BSTAR          = -.10982E-2
MEAN_MOTION_DOT = -.849994E-2
MEAN_MOTION_DDOT = .26413E-3

CCSDS_OMM_VERS = 2.0
CREATION_DATE  = 
ORIGINATOR     = 

OBJECT_NAME    = STARLINK-36361
OBJECT_ID      = 2026-035X
CENTER_NAME    = EARTH
REF_FRAME      = TEME
TIME_SYSTEM    = UTC
MEAN_ELEMENT_THEORY = SGP/SGP4

EPOCH          = 2026-02-28T20:00:01.999008
MEAN_MOTION    = 16.07313727
ECCENTRICITY   = .0000893
INCLINATION    = 97.2783
RA_OF_ASC_NODE = 351.4514
ARG_OF_PERICENTER = 102.0635
MEAN_ANOMALY   = 10.8609

EPHEMERIS_TYPE = 0
CLASSIFICATION_TYPE = U
NORAD_CAT_ID   = 67900
ELEMENT_SET_NO = 999
REV_AT_EPOCH   = 233
BSTAR          = -.10967E-2
MEAN_MOTION_DOT = -.85598E-2
MEAN_MOTION_DDOT = .26805E-3

