STARLINK-36372          
1 67889U 26035L   26059.83335647 -.00699553  18121-3 -97179-3 0  9996
2 67889  97.2797 351.4419 0000965  92.0932 358.2437 16.05981466  2339
STARLINK-36363          
1 67890U 26035M   26059.83335647 -.00714716  18838-3 -99814-3 0  9990
2 67890  97.2800 351.4412 0001092 102.1079 346.4629 16.05896445  2330
STARLINK-36816          
1 67891U 26035N   26059.83335647 -.00855206  26936-3 -10608-2 0  9992
2 67891  97.2773 351.4554 0000864  96.4030  26.8669 16.07831313  2221
STARLINK-36813          
1 67892U 26035P   26059.83335647 -.00842919  25973-3 -10962-2 0  9993
2 67892  97.2779 351.4489 0000988  89.5561  18.9886 16.07070935  2334
STARLINK-36803          
1 67893U 26035Q   26059.83335647 -.00702040  18278-3 -96567-3 0  9990
2 67893  97.2796 351.4431 0000989  98.7877 354.3154 16.06142675  2339
STARLINK-36846          
1 67894U 26035R   26059.83335647 -.00731038  19790-3 -98526-3 0  9997
2 67894  97.2794 351.4453 0000979 100.9627 357.7742 16.06478438  2339
STARLINK-36866          
1 67895U 26035S   26059.83335647 -.00764905  21570-3 -10215-2 0  9994
2 67895  97.2792 351.4464 0000941  90.6112  10.5607 16.06631690  2338
STARLINK-36877          
1 67896U 26035T   26059.83335647 -.00669412  16768-3 -90989-3 0  9992
2 67896  97.2793 351.4442 0000910  92.3250   3.7167 16.06332210  2335
STARLINK-36870          
1 67897U 26035U   26059.83335647 -.00802887  23653-3 -10608-2 0  9998
2 67897  97.2789 351.4476 0000867 101.0524   2.9192 16.06810169  2334
STARLINK-36810          
1 67898U 26035V   26059.83335647 -.00815802  24401-3 -10700-2 0  9995
2 67898  97.2787 351.4482 0000970  83.4634  22.7113 16.06929611  2336
STARLINK-36878          
1 67899U 26035W   26059.83335647 -.00849994  26413-3 -10982-2 0  9992
2 67899  97.2784 351.4502 0000911 106.7130   3.8255 16.07176992  2336
STARLINK-36361          
1 67900U 26035X   26059.83335647 -.00855980  26805-3 -10967-2 0  9995
2 67900  97.2783 351.4514 0000893 102.0635  10.8609 16.07313727  2339
